STARLINK-34560
1 64700U 25142E   26061.11868750  .00002782  00000+0  25614-3 0  9991
2 64700  70.0027 333.6418 0002580 268.2549  91.8313 14.95913227 38306
STARLINK-34447
1 64710U 25142Q   26061.16101660  .00006729  00000+0  60749-3 0  9990
2 64710  70.0020 333.3817 0002485 268.5285  91.5589 14.95920570 38529
STARLINK-34577
1 64719U 25142Z   26061.15936677  .00003735  00000+0  34102-3 0  9990
2 64719  70.0022 333.3787 0002371 268.2572  91.8314 14.95916853 38366
